---
layout: post
title: "Phoenix to St. Louis"
author: "Marcelo"
comments: true
tags: flight-simulator
---
Welcome aboard of American Airlines AA489 flight. The flight is from Phoenix (PHX) to St. Louis (STL) on board of the <a href="https://imgproc.airliners.net/photos/airliners/3/7/7/6325773.jpg?v=v4276c779294" target="_blank">Airbus A319-100</a>, the approximated flight time will be 3 hours.

In Phoenix Sky Harbor Internacional Airport, the is cloudy and temperature is 13<sup>o</sup>C. In St. Louis Lambert International Airport, the sky is clear with few clouds and the temperature is around 13<sup>o</sup>C.

## Flight General Information
{% highlight markdown %}
Flight ID      : 001
Flight Number  : AA489
Flight Co.     : American Airlines
Aircraft Model : Airbus A319-100
Departure      : KPHX/PHX Phoenix, United States (-8 UTC)
Arrival        : KSTL/STL St. Louis, United States (-6 UTC)
{% endhighlight %}

## Flight Schedule
{% highlight markdown %}
Dep. Scheduled : 09:00      Dep. Time : 09:05
Arr. Scheduled : 14:00      Arr. Time : 13:58

Flight Time    : 2:53
Acc. Flt. Time : 2:53
{% endhighlight %}

## Flight Weight
{% highlight markdown %}
PAX            :     161 people
Cargo          :     400 lbs
Fuel Loaded    :  21.900 lbs
Takeoff Weight : 142.900 lbs
{% endhighlight %}

## Flight Route
{% highlight markdown %}
Flight Level   : FL370
Flt Distance   : 1.022 NM
Route          : KPHX/08 FORPE1 ABQ DCT FTI DCT KA36W DCT KK42A DCT BUM KAYLA3 KSTL/30L
{% endhighlight %}

## Weather Information
{% highlight markdown %}
KPHX/PHX  PHOENIX SKY HARBOR INTL
   KPHX 311551Z 21003KT 8SM SCT006 BKN008 OVC012 13/12 A2992

KSTL/STL  ST LOUIS LAMBERT INTL
   KSTL 310951Z 22018G25KT 10SM BKN065 OVC250 09/M09 A2975
{% endhighlight %}

<figure align="center">
   <img src="/assets/001.PNG" alt="Flight Map" />
</figure>
