---
layout: post
title: "Stockholm to London"
author: "Marcelo"
comments: true
tags: flight-simulator
---
Welcome aboard of British Airways BA771 flight. The flight is from Stockholm (ARN) to London (LHR) on board of the <a href="https://imgproc.airliners.net/photos/airliners/2/9/2/1870292.jpg?v=v40" target="_blank">Airbus A319-100</a>, the approximated flight time will be 2 hours and 50 minutes.

In Stockholm Arlanda Airport, the sky is clear with no clouds and the temperature is 4<sup>o</sup>C. In London Heathrow Airport, the sky is clear with no clouds, the temperature is 3<sup>o</sup>C.

## Flight General Information
{% highlight markdown %}
Flight ID      : 012
Flight Number  : BA771
Flight Co.     : KLM Royal Dutch Airlines
Aircraft Model : Boeing 737-800
Departure      : ESSA/ARN Stockholm, Sweden (+1 UTC)
Arrival        : EGLL/LHR London, United Kingdom (0 UTC)
{% endhighlight %}

## Flight Schedule
{% highlight markdown %}
Dep. Scheduled : 18:00      Dep. Time : 18:05
Arr. Scheduled : 19:50      Arr. Time : 19:50

Flight Time    :  2:45
Acc. Flt. Time : 34:02
{% endhighlight %}

## Flight Weight
{% highlight markdown %}
PAX            :     127 people
Cargo          :     400 lbs
Fuel Loaded    :  18.100 lbs
Takeoff Weight : 140.200 lbs
{% endhighlight %}

## Flight Route
{% highlight markdown %}
Flight Level   : FL STEPS EHAM/0190/LABIL/0230/TUSKA/0350
Flt Distance   : 665 NM
Route          : EHAM/27 SPY1P ANDIK N873 ARS T317 ELTOK ELTOK7S ESSA/08
{% endhighlight %}

## Weather Information
{% highlight markdown %}
ESSA/ARN  ARLANDA
   ESSA 201650Z 27005KT CAVOK 04/02 Q1019 R01L/29//67 R08/29//70 R01R/29//70 NOSIG

EGLL/LHR  HEATHROW
   EGLL 201920Z AUTO 05004KT 9999 NCD 03/M02 Q1031
{% endhighlight %}

<figure align="center">
   <img src="/assets/012.PNG">
</figure>
