---
layout: post
title: "Paris to Madrid"
author: "Marcelo"
comments: true
tags: flight-simulator
---
Welcome aboard of Air France AF1600 flight. The flight is from Paris (CDG) to Madrid (MAD) on board of the <a href="https://imgproc.airliners.net/photos/airliners/7/7/2/6342277.jpg?v=v4ba601594ea" target="_blank">Airbus A320-200</a>, the approximated flight time will be 2 hours.

In Paris Charles de Gaulle Airport, the sky is cloudy and the temperature is 2<sup>o</sup>C. In Madrid Adolfo Soarez Barajas International Airport, the sky is clear with few clouds and the temperature is around 11<sup>o</sup>C.

## Flight General Information
{% highlight markdown %}
Flight ID      : 008
Flight Number  : AF1600
Flight Co.     : Air France
Aircraft Model : Airbus A320-200
Departure      : LFPG/CDG Paris, France (+1 UTC)
Arrival        : LEMD/MAD Madrid, Spain (+1 UTC)
{% endhighlight %}

## Flight Schedule
{% highlight markdown %}
Dep. Scheduled : 14:30      Dep. Time : 14:45
Arr. Scheduled : 16:30      Arr. Time : 16:50

Flight Time    :  2:00
Acc. Flt. Time : 24:58
{% endhighlight %}

## Flight Weight
{% highlight markdown %}
PAX            :     163 people
Cargo          :     200 lbs
Fuel Loaded    :  16.600 lbs
Takeoff Weight : 150.100 lbs
{% endhighlight %}

## Flight Route
{% highlight markdown %}
Flight Level   : FL STEPS LFPG/0330/
Flt Distance   : 629 NM
Route          : LFPG/09R AGOPA2G AGOPA UL167 ARTAX UN857 BAN BAN1J LEMD/32L
{% endhighlight %}

## Weather Information
{% highlight markdown %}
LFPG/CDG  CHARLES-DE-GAULLE
   LFPG 161230Z 04004KT 360V060 7000 BKN009 BKN063 02/00 Q1026 NOSIG

LEMD/MAD  ADOLFO SUAREZ MADRID-BARAJAS
   LEMD 161530Z 01016KT 340V040 9999 FEW070 11/01 Q1022 NOSIG
{% endhighlight %}

<figure align="center">
   <img src="/assets/008.PNG">
</figure>
