---
layout: post
title: "Amsterdam to Stockholm"
author: "Marcelo"
comments: true
tags: flight-simulator
---
Welcome aboard of KLM KL1107 flight. The flight is from Amsterdam (AMS) to Stockholm (ARN) on board of the <a href="https://imgproc.airliners.net/photos/airliners/1/3/5/6273531.jpg?v=v483b52fe644" target="_blank">Boeing 737-800</a>, the approximated flight time will be 2 hours.

In Amsterdam Schiphol Airport, the sky is clear with patch of fogs and the temperature is -5<sup>o</sup>C. In Stockholm Arlanda Airport, the sky is overcast, the temperature is around 2<sup>o</sup>C.

## Flight General Information
{% highlight markdown %}
Flight ID      : 011
Flight Number  : KL1107
Flight Co.     : KLM Royal Dutch Airlines
Aircraft Model : Boeing 737-800
Departure      : EHAM/AMS Amsterdam, Netherlands (+1 UTC)
Arrival        : ESSA/ARN Stockholm, Sweden (+1 UTC)
{% endhighlight %}

## Flight Schedule
{% highlight markdown %}
Dep. Scheduled : 06:30      Dep. Time : 06:50
Arr. Scheduled : 08:30      Arr. Time : 08:50

Flight Time    :  2:00
Acc. Flt. Time : 31:17
{% endhighlight %}

## Flight Weight
{% highlight markdown %}
PAX            :     171 people
Cargo          :     300 lbs
Fuel Loaded    :  17.900 lbs
Takeoff Weight : 148.700 lbs
{% endhighlight %}

## Flight Route
{% highlight markdown %}
Flight Level   : FL STEPS EHAM/0190/LABIL/0230/TUSKA/0350
Flt Distance   : 665 NM
Route          : EHAM/27 SPY1P ANDIK N873 ARS T317 ELTOK ELTOK7S ESSA/08
{% endhighlight %}

## Weather Information
{% highlight markdown %}
EHAM/AMS SCHIPHOL
   EHAM 190525Z 09003KT 6000 BCFG NSC M05/M06 Q1038 TEMPO 1000

ESSA/ARN  ARLANDA
   ESSA 190720Z 26012KT 9999 OVC003 02/02 Q1021 R01L/29//95 R08/29//95 R01R/29//95 NOSIG
{% endhighlight %}

<figure align="center">
   <img src="/assets/011.PNG">
</figure>
