---
layout: post
title: "Chicago to Boston"
author: "Marcelo"
comments: true
tags: flight-simulator
---
Welcome aboard of American Airlines AA2222 flight. The flight is from Chicago (ORD) to Boston (BOS) on board of the <a href="https://imgproc.airliners.net/photos/airliners/9/5/6/4525659.jpg?v=v40e4e01f1d8" target="_blank">Boeing 737-800</a>, the approximated flight time will be 2 hours and 30 minutes.

In Chicago O'Hare International Airport, the sky is cloudy and temperature is -3<sup>o</sup>C. In Boston Logan International Airport, the sky is cloudy and the temperature is around -7<sup>o</sup>C.

## Flight General Information
{% highlight markdown %}
Flight ID      : 005
Flight Number  : AA2222
Flight Co.     : American Airlines
Aircraft Model : Boeing 737-800
Departure      : KORD/ORD Chicago, United States (-6 UTC)
Arrival        : KBOS/BOS Boston, United States (-5 UTC)
{% endhighlight %}

## Flight Schedule
{% highlight markdown %}
Dep. Scheduled : 12:00      Dep. Time : 12:15
Arr. Scheduled : 15:30      Arr. Time : 15:45

Flight Time    :  2:30
Acc. Flt. Time : 13:40
{% endhighlight %}

## Flight Weight
{% highlight markdown %}
PAX            :     161 people
Cargo          :     400 lbs
Fuel Loaded    :  18.800 lbs
Takeoff Weight : 147.400 lbs
{% endhighlight %}

## Flight Route
{% highlight markdown %}
Flight Level   : FL STEPS KORD/0350/
Flt Distance   : 689 NM
Route          : KORD/28R DCT EBAKE DCT WISMO DCT POSTS DCT PADDE DCT SVM DCT DKK DCT
                 PONCT JFUND2 KBOS/33L
{% endhighlight %}

## Weather Information
{% highlight markdown %}
KORD/ORD  -O'HARE INTL
   KORD 091751Z 23008KT 10SM SCT140 OVC250 M03/M09 A3025

KBOS/BOS  LOGAN INTL
   KBOS 091954Z 22009KT 10SM FEW050 OVC200 M07/M17 A3066
{% endhighlight %}

<figure align="center">
   <img src="/assets/005.PNG">
</figure>
