---
layout: post
title: "San Francisco to Vancouver"
author: "Marcelo"
comments: true
tags: flight-simulator
---
Welcome aboard of United Airlines UA5689 flight. The flight is from San Francisco (SFO) to Vancouver (YVR) on board of the <a href="https://imgproc.airliners.net/photos/airliners/1/1/9/6346911.jpg?v=v48fa935c0eb" target="_blank">Airbus A320neo</a>, the approximated flight time will be 2 hours and 20 minutes.

In San Francisco International Airport, the sky is cloudy, the temperature is 13<sup>o</sup>C. In Vancouver International Airport, the sky is clear with few clouds. The temperature is around 13<sup>o</sup>C. Amazing orange sunset in Vancouver.

## Flight General Information
{% highlight markdown %}
Flight ID      : 289
Flight Number  : AA2907
Flight Co.     : United Airlines
Aircraft Model : Airbus A320neo
Departure      : KSFO/SFO San Francisco, United States (-8 UTC)
Arrival        : CYVR/YVR Vancouver, Canada (-8 UTC)
{% endhighlight %}

## Flight Schedule
{% highlight markdown %}
Dep. Scheduled : 15:00      Dep. Time : 15:45
Arr. Scheduled : 17:20      Arr. Time : 17:49

Flight Time    :   2:04
Acc. Flt. Time : 764:48
{% endhighlight %}

## Flight Weight
{% highlight markdown %}
PAX            :     155 people
Cargo          :     800 lbs
Fuel Loaded    :  16.300 lbs
Takeoff Weight : 142.500 lbs
{% endhighlight %}

## Flight Route
{% highlight markdown %}
Flight Level   : FL STEPS KSFO/0310/
Flt Distance   : 770 NM
Route          : KSFO/19L CIITY3 ORRCA DCT KAGYE DCT MUREX DCT LMT DCT HRMNS DCT ALDER
                 DCT SEA DCT PAE GRIZZ6 CYVR/26L
{% endhighlight %}

## Weather Information
{% highlight markdown %}
KSFO/SFO SAN FRANCISCO INTL
   KSFO 132256Z 29016KT 10SM BKN019 BKN035 13/06 A3031 RMK AO2 SLP262 T01330056

CYVR/YVR VANCOUVER INTL
   CYVR 132300Z 13008KT 20SM FEW130 BKN170 BKN210 13/02 A3012 RMK AC1AS7CI1 AC TR CI TR
   SLP200
{% endhighlight %}

<figure align="center">
   <img src="/assets/289.PNG">
</figure>
