---
layout: post
title: "Minneapolis to New York"
author: "Marcelo"
comments: true
tags: flight-simulator
---
Welcome aboard of United Airlines DL1298 flight. The flight is from Minneapolis (MSP) to New York (KJFK) on board of the <a href="https://imgproc.airliners.net/photos/airliners/1/1/2/6191211.jpg?v=v41c4ba43184" target="_blank">Airbus A320neo</a>, the approximated flight time will be 2 hours and 30 minutes.

In Minneapolis–Saint Paul International Airport, the sky is overcast with mist and light snow, the temperature is -2<sup>o</sup>C. In New York John Fitzgerald Kennedy International Airport, the sky is clear with few clouds. The temperature is around 4<sup>o</sup>C.

## Flight General Information
{% highlight markdown %}
Flight ID      : 291
Flight Number  : DL1298
Flight Co.     : Delta Airlines
Aircraft Model : Airbus A320neo
Departure      : KMSP/MSP Minneapolis, United States (-6 UTC)
Arrival        : KJFK/JFK New York, United States (-4 UTC)
{% endhighlight %}

## Flight Schedule
{% highlight markdown %}
Dep. Scheduled : 12:45      Dep. Time : 13:03
Arr. Scheduled : 17:15      Arr. Time : 17:20

Flight Time    :   2:17
Acc. Flt. Time : 770:21
{% endhighlight %}

## Flight Weight
{% highlight markdown %}
PAX            :     165 people
Cargo          :     500 lbs
Fuel Loaded    :  19.700 lbs
Takeoff Weight : 147.900 lbs
{% endhighlight %}

## Flight Route
{% highlight markdown %}
Flight Level   : FL STEPS KMSP/0330/
Flt Distance   : 893 NM
Route          : KMSP/22 COULT7 DLL J34 BAE J70 LVZ LENDY6 KJFK/31L
{% endhighlight %}

## Weather Information
{% highlight markdown %}
KMSP/MINNEAPOLIS-ST PAUL INTL/WOLD-
   KMSP 152049Z 09012G23KT 1 1/4SM R30L/2800V3500FT -SN BR FEW007 OVC013 M02/M03 A3005
   RMK AO2 P0003

KJFK/JFK KENNEDY INTL
   KJFK 152051Z 33017G21KT 10SM FEW250 04/M22 A3027 RMK AO2 SLP251 T00391217 56015
{% endhighlight %}

<figure align="center">
   <img src="/assets/291.PNG">
</figure>
