---
layout: post
title: "Vancouver to Minneapolis"
author: "Marcelo"
comments: true
tags: flight-simulator
---
Welcome aboard of United Airlines UA1243 flight. The flight is from Vancouver (YVR) to Minneapolis (MSP) on board of the <a href="https://imgproc.airliners.net/photos/airliners/1/1/9/6346911.jpg?v=v48fa935c0eb" target="_blank">Airbus A320neo</a>, the approximated flight time will be 3 hours and 15 minutes.

In Vancouver International Airport, the sky is overcast with rain, the temperature is 9<sup>o</sup>C. In Minneapolis–Saint Paul International Airport, the sky is broken. The temperature is around 7<sup>o</sup>C.

## Flight General Information
{% highlight markdown %}
Flight ID      : 290
Flight Number  : UA1243
Flight Co.     : United Airlines
Aircraft Model : Airbus A320neo
Departure      : CYVR/YVR Vancouver, Canada (-8 UTC)
Arrival        : KMSP/MSP Minneapolis, United States (-6 UTC)
{% endhighlight %}

## Flight Schedule
{% highlight markdown %}
Dep. Scheduled : 11:15      Dep. Time : 11:33
Arr. Scheduled : 16:30      Arr. Time : 16:49

Flight Time    :   3:16
Acc. Flt. Time : 768:04
{% endhighlight %}

## Flight Weight
{% highlight markdown %}
PAX            :     165 people
Cargo          :     500 lbs
Fuel Loaded    :  25.000 lbs
Takeoff Weight : 153.200 lbs
{% endhighlight %}

## Flight Route
{% highlight markdown %}
Flight Level   : FL STEPS CYVR/0330/
Flt Distance   : 1.266 NM
Route          : CYVR/26L DCT HE DCT YDC DCT SKAHA DCT YXC DCT GGW DCT ZEGUS DCT JMS
                 DCT DUXHO DCT TTAIL BAINY3 KMSP/12R
{% endhighlight %}

## Weather Information
{% highlight markdown %}
CYVR/YVR VANCOUVER INTL
   CYVR 141800Z 11017G23KT 15SM -RA OVC040 09/05 A2983 RMK SC8 SLP102

KMSP/MSP MINNEAPOLIS-ST PAUL INTL/WOLD-
   KMSP 141753Z 07016G30KT 10SM BKN250 07/M09 A3042 RMK AO2 PK WND 08031/1710 SLP310
   T00721089 10078 20011 56008
{% endhighlight %}

<figure align="center">
   <img src="/assets/290.PNG">
</figure>
